{
    "links": {
        "self": "http://www.neowsapp.com/rest/v1/neo/3879300?api_key=iIulBulltgU6a56xZRHN4H3l9WmuAYTsLGpBGhQ2"
    },
    "id": "3879300",
    "neo_reference_id": "3879300",
    "name": "(2019 UV2)",
    "designation": "2019 UV2",
    "nasa_jpl_url": "http://ssd.jpl.nasa.gov/sbdb.cgi?sstr=3879300",
    "absolute_magnitude_h": 23.5,
    "estimated_diameter": {
        "kilometers": {
            "estimated_diameter_min": 0.0530340723,
            "estimated_diameter_max": 0.1185877909
        },
        "meters": {
            "estimated_diameter_min": 53.0340723319,
            "estimated_diameter_max": 118.5877908577
        },
        "miles": {
            "estimated_diameter_min": 0.0329538346,
            "estimated_diameter_max": 0.0736870142
        },
        "feet": {
            "estimated_diameter_min": 173.9963058693,
            "estimated_diameter_max": 389.0675677576
        }
    },
    "is_potentially_hazardous_asteroid": false,
    "close_approach_data": [
        {
            "close_approach_date": "2019-10-12",
            "close_approach_date_full": "2019-Oct-12 12:58",
            "epoch_date_close_approach": 1570885080000,
            "relative_velocity": {
                "kilometers_per_second": "8.3153063797",
                "kilometers_per_hour": "29935.1029670564",
                "miles_per_hour": "18600.5088408357"
            },
            "miss_distance": {
                "astronomical": "0.240432611",
                "lunar": "93.528285679",
                "kilometers": "35968206.48413857",
                "miles": "22349607.144189466"
            },
            "orbiting_body": "Earth"
        }
    ],
    "orbital_data": {
        "orbit_id": "5",
        "orbit_determination_date": "2019-10-27 06:22:39",
        "first_observation_date": "2019-10-20",
        "last_observation_date": "2019-10-26",
        "data_arc_in_days": 6,
        "observations_used": 26,
        "orbit_uncertainty": "9",
        "minimum_orbit_intersection": ".231945",
        "jupiter_tisserand_invariant": "4.379",
        "epoch_osculation": "2458780.5",
        "eccentricity": ".2420571259423494",
        "semi_major_axis": "1.548346007800114",
        "inclination": "15.87632391239403",
        "ascending_node_longitude": "35.15590145432126",
        "orbital_period": "703.7209088071879",
        "perihelion_distance": "1.173557823187708",
        "perihelion_argument": "309.1736461116309",
        "aphelion_distance": "1.92313419241252",
        "perihelion_time": "2458725.586071556890",
        "mean_anomaly": "28.0921228744336",
        "mean_motion": ".5115664398976046",
        "equinox": "J2000",
        "orbit_class": {
            "orbit_class_type": "AMO",
            "orbit_class_description": "Near-Earth asteroid orbits similar to that of 1221 Amor",
            "orbit_class_range": "1.017 AU < q (perihelion) < 1.3 AU"
        }
    },
    "is_sentry_object": false
}